GLOBALSTAR M001         
1 25162U 98008A   24118.21207508 -.00000059  00000+0  28649-3 0  9998
2 25162  52.0016 103.9227 0001613  89.5228 282.8407 12.38182961192296
GLOBALSTAR M004         
1 25163U 98008B   24118.57478382 -.00000009  00000+0  52323-3 0  9999
2 25163  51.9997 242.0493 0003550  94.7239   7.3772 12.63357122209256
GLOBALSTAR M002         
1 25164U 98008C   24118.50671722 -.00000015  00000+0  12101-2 0  9992
2 25164  52.0003 202.4467 0001664 116.2563 243.8428 11.61502243135832
GLOBALSTAR M003         
1 25165U 98008D   24118.57389223  .00000098  00000+0  19966-2 0  9998
2 25165  51.9850 239.6204 0008389 174.0084 270.6917 12.11997264182912
GLOBALSTAR M014         
1 25306U 98023A   24117.50569066 -.00000062  00000+0  29930-3 0  9994
2 25306  51.9807 136.9395 0000822 306.7749 221.3992 11.65467324142589
GLOBALSTAR M006         
1 25307U 98023B   24118.46920843  .00000019  00000+0  19462-2 0  9994
2 25307  51.9917 171.4416 0003572  84.2104 289.1191 11.58162539168772
GLOBALSTAR M015         
1 25308U 98023C   24118.10144759 -.00000042  00000+0  71191-3 0  9995
2 25308  51.9820 251.7572 0012808  59.6782 111.5774 11.48850753146638
GLOBALSTAR M008         
1 25309U 98023D   24117.61055633 -.00000037  00000+0  46413-3 0  9996
2 25309  51.9979 325.7883 0002910  33.6993 339.8862 12.36042266186334
